BEIDOU-3S IGSO-1S       
1 40549U 15019A   26165.84191499 -.00000179  00000+0  00000+0 0  9999
2 40549  49.1999 295.4904 0039133 191.2000 171.1730  1.00250661 41051
NAVSTAR 74 (USA 262)    
1 40730U 15033A   26165.72805943 -.00000015  00000+0  00000+0 0  9999
2 40730  53.9843 267.1880 0115073  30.2246 330.4667  2.00556296 79947
BEIDOU-3S M2S           
1 40748U 15037A   26165.10162985 -.00000069  00000+0  00000+0 0  9995
2 40748  54.8742 302.1534 0008226 259.7904 100.0986  1.86232117 74069
BEIDOU-3S M1S           
1 40749U 15037B   26165.84629404 -.00000069  00000+0  00000+0 0  9991
2 40749  54.8696 302.1146 0003480  61.6537 298.3641  1.86254759 74083
GSAT0205 (GALILEO 9)    
1 40889U 15045A   26144.30399159 -.00000014  00000+0  00000+0 0  9994
2 40889  54.9357 222.4171 0006405 263.0112  96.9692  1.67409242 66562
GSAT0206 (GALILEO 10)   
1 40890U 15045B   26164.35123010  .00000061  00000+0  00000+0 0  9995
2 40890  54.9458 221.7104 0001697 337.4891  22.6033  1.70473791 66976
BEIDOU-3S IGSO-2S       
1 40938U 15053A   26165.82410640 -.00000131  00000+0  00000+0 0  9997
2 40938  49.2253 258.8113 0065716 192.1261 204.1557  1.00259392 39339
NAVSTAR 75 (USA 265)    
1 41019U 15062A   26165.78426795 -.00000064  00000+0  00000+0 0  9996
2 41019  56.9578  30.9038 0111853 231.0810 127.9739  2.00566892 77789
GSAT-15                 
1 41028U 15065A   26166.05322593 -.00000253  00000+0  00000+0 0  9991
2 41028   0.0757 265.6446 0004063 161.5991 308.7505  1.00270945 38775
GSAT0209 (GALILEO 12)   
1 41174U 15079A   26165.69239813 -.00000011  00000+0  00000+0 0  9991
2 41174  55.8259 101.3304 0005333 342.7065  17.2319  1.70473698 64734
GSAT0208 (GALILEO 11)   
1 41175U 15079B   26165.32611699 -.00000010  00000+0  00000+0 0  9997
2 41175  55.8243 101.3373 0004862 343.1705  16.7693  1.70473576 65146
IRNSS-1E                
1 41241U 16003A   26163.64327530 -.00000313  00000+0  00000+0 0  9996
2 41241  33.2248  59.8162 0017963 179.0965   5.2620  1.00267194 38039
NAVSTAR 76 (USA 266)    
1 41328U 16007A   26161.88615663 -.00000012  00000+0  00000+0 0  9993
2 41328  55.5202  89.7095 0096051 247.3753 111.5952  2.00551966 75717
COSMOS 2514 [GLONASS-M] 
1 41330U 16008A   26165.93885654 -.00000054  00000+0  00000+0 0  9992
2 41330  65.0231 313.0836 0011202 197.8600 162.0843  2.13102554 80578
BEIDOU-2 IGSO-6         
1 41434U 16021A   26165.62664249 -.00000152  00000+0  00000+0 0  9992
2 41434  60.2220  38.0652 0057107 231.4956 311.9910  1.00259627 37459
IRNSS-1G                
1 41469U 16027A   26166.28466801 -.00000335  00000+0  00000+0 0  9996
2 41469   5.1933  97.5168 0007525 354.5419  43.5113  1.00267006 37169
GSAT0211 (GALILEO 14)   
1 41549U 16030A   26165.45012091  .00000059  00000+0  00000+0 0  9997
2 41549  55.0959 221.7703 0002887 323.8922  36.1904  1.70473900 62624
GSAT0210 (GALILEO 13)   
1 41550U 16030B   26165.12080752  .00000060  00000+0  00000+0 0  9994
2 41550  55.0957 221.7774 0004351 242.7300 117.3275  1.70473721 62612
BEIDOU-2 G7             
1 41586U 16037A   26166.28094132 -.00000350  00000+0  00000+0 0  9998
2 41586   1.7142  69.2972 0006754   4.0559  41.7733  1.00264536  6874
EUTELSAT 117 WEST B     
1 41589U 16038B   26166.01642035 -.00000006  00000+0  00000+0 0  9992
2 41589   0.0044 166.0114 0000447 257.2085  88.9985  1.00269365 36648
GSAT0207 (GALILEO 15)   
1 41859U 16069A   26164.22587441 -.00000005  00000+0  00000+0 0  9995
2 41859  55.4965 101.1958 0005340 329.2109  30.7143  1.70473583 59332
GSAT0212 (GALILEO 16)   
1 41860U 16069B   26165.25248100 -.00000011  00000+0  00000+0 0  9994
2 41860  55.4947 101.1626 0004642 358.3825   1.5720  1.70473713 59600
GSAT0213 (GALILEO 17)   
1 41861U 16069C   26162.68680405  .00000007  00000+0  00000+0 0  9991
2 41861  55.4953 101.2414 0005060 311.8034  48.1151  1.70474158 59424
GSAT0214 (GALILEO 18)   
1 41862U 16069D   26165.17933449 -.00000010  00000+0  00000+0 0  9993
2 41862  55.4956 101.1651 0004255 319.5735  40.3509  1.70473798 59596
SES-15                  
1 42709U 17026A   26165.94829882  .00000065  00000+0  00000+0 0  9997
2 42709   0.0208 333.5526 0000964  35.1417 106.7619  1.00267517  7412
QZS-2 (MICHIBIKI-2)     
1 42738U 17028A   26165.52433266 -.00000137  00000+0  00000+0 0  9993
2 42738  39.4315 243.1943 0760401 269.2281  80.7522  1.00284682  7591
QZS-3 (MICHIBIKI-3)     
1 42917U 17048A   26166.28414800  .00000000  00000+0  00000+0 0  9999
2 42917   0.0282 153.3322 0002436 299.6015  39.8619  1.00263643 32245
COSMOS 2522 [GLONASS-M] 
1 42939U 17055A   26164.36890624  .00000114  00000+0  00000+0 0  9996
2 42939  64.0787 192.0144 0010818 240.5111 119.4561  2.13101904 67892
QZS-4 (MICHIBIKI-4)     
1 42965U 17062A   26165.35787891 -.00000335  00000+0  00000+0 0  9990
2 42965  40.1096 343.5183 0745249 271.7117 273.4729  1.00251032 31778
BEIDOU-3 M1             
1 43001U 17069A   26164.37433310 -.00000055  00000+0  00000+0 0  9993
2 43001  56.6884  63.2107 0010559 324.8482  35.1090  1.86231168 58532
BEIDOU-3 M2             
1 43002U 17069B   26163.77611076 -.00000055  00000+0  00000+0 0  9994
2 43002  56.6872  63.2666 0009220 350.0125   9.9939  1.86230859 58513
